[{"OBJECT_NAME":"SL-14 R/B","OBJECT_ID":"1986-006B","EPOCH":"2026-03-13T23:05:30.428736","MEAN_MOTION":14.86821655,"ECCENTRICITY":0.00750726,"INCLINATION":82.5236,"RA_OF_ASC_NODE":255.7149,"ARG_OF_PERICENTER":258.3339,"MEAN_ANOMALY":100.9446,"EPHEMERIS_TYPE":0,"CLASSIFICATION_TYPE":"U","NORAD_CAT_ID":16496,"ELEMENT_SET_NO":999,"REV_AT_EPOCH":14984,"BSTAR":8.2985752e-5,"MEAN_MOTION_DOT":8.04e-6,"MEAN_MOTION_DDOT":0},{"OBJECT_NAME":"COSMOS 1743","OBJECT_ID":"1986-034A","EPOCH":"2026-03-13T22:38:22.412544","MEAN_MOTION":15.58879274,"ECCENTRICITY":0.00016071,"INCLINATION":82.5292,"RA_OF_ASC_NODE":69.3651,"ARG_OF_PERICENTER":252.8944,"MEAN_ANOMALY":107.2137,"EPHEMERIS_TYPE":0,"CLASSIFICATION_TYPE":"U","NORAD_CAT_ID":16719,"ELEMENT_SET_NO":999,"REV_AT_EPOCH":18091,"BSTAR":0.0005008376,"MEAN_MOTION_DOT":0.00038915,"MEAN_MOTION_DDOT":0},{"OBJECT_NAME":"SL-14 R/B","OBJECT_ID":"1986-046B","EPOCH":"2026-03-13T23:36:00.131040","MEAN_MOTION":14.85594946,"ECCENTRICITY":0.0022253,"INCLINATION":82.4782,"RA_OF_ASC_NODE":76.1233,"ARG_OF_PERICENTER":210.5368,"MEAN_ANOMALY":149.4554,"EPHEMERIS_TYPE":0,"CLASSIFICATION_TYPE":"U","NORAD_CAT_ID":16792,"ELEMENT_SET_NO":999,"REV_AT_EPOCH":12704,"BSTAR":5.8914953e-5,"MEAN_MOTION_DOT":5.36e-6,"MEAN_MOTION_DDOT":0},{"OBJECT_NAME":"SL-14 R/B","OBJECT_ID":"1986-055B","EPOCH":"2026-03-13T14:15:23.061888","MEAN_MOTION":14.85646556,"ECCENTRICITY":0.00178666,"INCLINATION":82.5194,"RA_OF_ASC_NODE":123.0043,"ARG_OF_PERICENTER":323.1063,"MEAN_ANOMALY":201.7881,"EPHEMERIS_TYPE":0,"CLASSIFICATION_TYPE":"U","NORAD_CAT_ID":16882,"ELEMENT_SET_NO":999,"REV_AT_EPOCH":11994,"BSTAR":5.3995288e-5,"MEAN_MOTION_DOT":4.93e-6,"MEAN_MOTION_DDOT":0},{"OBJECT_NAME":"AJISAI (EGS)","OBJECT_ID":"1986-061A","EPOCH":"2026-03-13T23:25:43.004352","MEAN_MOTION":12.44515651,"ECCENTRICITY":0.00112834,"INCLINATION":50.0082,"RA_OF_ASC_NODE":80.1659,"ARG_OF_PERICENTER":298.0398,"MEAN_ANOMALY":151.1603,"EPHEMERIS_TYPE":0,"CLASSIFICATION_TYPE":"U","NORAD_CAT_ID":16908,"ELEMENT_SET_NO":999,"REV_AT_EPOCH":46853,"BSTAR":2.0384026e-5,"MEAN_MOTION_DOT":-9.4e-7,"MEAN_MOTION_DDOT":0},{"OBJECT_NAME":"SL-14 R/B","OBJECT_ID":"1987-024B","EPOCH":"2026-03-13T11:26:11.873184","MEAN_MOTION":14.86136139,"ECCENTRICITY":0.00167786,"INCLINATION":82.5245,"RA_OF_ASC_NODE":89.2034,"ARG_OF_PERICENTER":246.287,"MEAN_ANOMALY":113.6587,"EPHEMERIS_TYPE":0,"CLASSIFICATION_TYPE":"U","NORAD_CAT_ID":17567,"ELEMENT_SET_NO":999,"REV_AT_EPOCH":8869,"BSTAR":6.0350614e-5,"MEAN_MOTION_DOT":5.54e-6,"MEAN_MOTION_DDOT":0},{"OBJECT_NAME":"COSMOS 1833","OBJECT_ID":"1987-027A","EPOCH":"2026-03-13T23:11:09.072672","MEAN_MOTION":14.13053638,"ECCENTRICITY":0.00240579,"INCLINATION":70.9213,"RA_OF_ASC_NODE":317.0316,"ARG_OF_PERICENTER":208.4818,"MEAN_ANOMALY":151.4991,"EPHEMERIS_TYPE":0,"CLASSIFICATION_TYPE":"U","NORAD_CAT_ID":17589,"ELEMENT_SET_NO":999,"REV_AT_EPOCH":1092,"BSTAR":-8.1174449e-5,"MEAN_MOTION_DOT":-2.0e-6,"MEAN_MOTION_DDOT":0},{"OBJECT_NAME":"SL-16 R/B","OBJECT_ID":"1987-027B","EPOCH":"2026-03-13T22:15:23.446080","MEAN_MOTION":14.17166621,"ECCENTRICITY":0.00032009,"INCLINATION":70.9994,"RA_OF_ASC_NODE":267.5645,"ARG_OF_PERICENTER":133.3139,"MEAN_ANOMALY":226.8252,"EPHEMERIS_TYPE":0,"CLASSIFICATION_TYPE":"U","NORAD_CAT_ID":17590,"ELEMENT_SET_NO":999,"REV_AT_EPOCH":1594,"BSTAR":4.4274271e-5,"MEAN_MOTION_DOT":4.1e-7,"MEAN_MOTION_DDOT":0},{"OBJECT_NAME":"SL-14 R/B","OBJECT_ID":"1987-038B","EPOCH":"2026-03-13T21:03:47.991456","MEAN_MOTION":14.85373206,"ECCENTRICITY":0.00200176,"INCLINATION":82.4994,"RA_OF_ASC_NODE":292.8621,"ARG_OF_PERICENTER":147.069,"MEAN_ANOMALY":213.1778,"EPHEMERIS_TYPE":0,"CLASSIFICATION_TYPE":"U","NORAD_CAT_ID":17912,"ELEMENT_SET_NO":999,"REV_AT_EPOCH":7985,"BSTAR":5.2545001e-5,"MEAN_MOTION_DOT":4.78e-6,"MEAN_MOTION_DDOT":0},{"OBJECT_NAME":"COSMOS 1844","OBJECT_ID":"1987-041A","EPOCH":"2026-03-13T22:13:25.967136","MEAN_MOTION":14.14551431,"ECCENTRICITY":0.00302477,"INCLINATION":70.9003,"RA_OF_ASC_NODE":25.2396,"ARG_OF_PERICENTER":11.6281,"MEAN_ANOMALY":348.5533,"EPHEMERIS_TYPE":0,"CLASSIFICATION_TYPE":"U","NORAD_CAT_ID":17973,"ELEMENT_SET_NO":999,"REV_AT_EPOCH":418,"BSTAR":-3.5405446e-5,"MEAN_MOTION_DOT":-1.17e-6,"MEAN_MOTION_DDOT":0},{"OBJECT_NAME":"SL-14 R/B","OBJECT_ID":"1987-055B","EPOCH":"2026-03-13T05:56:35.638944","MEAN_MOTION":14.85634056,"ECCENTRICITY":0.00208479,"INCLINATION":82.5031,"RA_OF_ASC_NODE":345.6792,"ARG_OF_PERICENTER":6.2682,"MEAN_ANOMALY":353.8791,"EPHEMERIS_TYPE":0,"CLASSIFICATION_TYPE":"U","NORAD_CAT_ID":18153,"ELEMENT_SET_NO":999,"REV_AT_EPOCH":7046,"BSTAR":6.6647206e-5,"MEAN_MOTION_DOT":6.03e-6,"MEAN_MOTION_DDOT":0},{"OBJECT_NAME":"COSMOS 1867","OBJECT_ID":"1987-060A","EPOCH":"2026-03-13T21:53:52.174752","MEAN_MOTION":14.31503723,"ECCENTRICITY":0.00145372,"INCLINATION":65.0106,"RA_OF_ASC_NODE":294.8799,"ARG_OF_PERICENTER":278.8372,"MEAN_ANOMALY":81.1067,"EPHEMERIS_TYPE":0,"CLASSIFICATION_TYPE":"U","NORAD_CAT_ID":18187,"ELEMENT_SET_NO":999,"REV_AT_EPOCH":2054,"BSTAR":3.0411459e-5,"MEAN_MOTION_DOT":-1.9e-7,"MEAN_MOTION_DDOT":0},{"OBJECT_NAME":"SL-14 R/B","OBJECT_ID":"1988-001B","EPOCH":"2026-03-13T07:27:12.049632","MEAN_MOTION":14.85532783,"ECCENTRICITY":0.00170476,"INCLINATION":82.5157,"RA_OF_ASC_NODE":191.9553,"ARG_OF_PERICENTER":222.954,"MEAN_ANOMALY":137.0346,"EPHEMERIS_TYPE":0,"CLASSIFICATION_TYPE":"U","NORAD_CAT_ID":18749,"ELEMENT_SET_NO":999,"REV_AT_EPOCH":4256,"BSTAR":7.3049972e-5,"MEAN_MOTION_DOT":6.56e-6,"MEAN_MOTION_DDOT":0},{"OBJECT_NAME":"COSMOS 1933","OBJECT_ID":"1988-020A","EPOCH":"2026-03-13T22:37:50.174976","MEAN_MOTION":15.18029252,"ECCENTRICITY":0.00042616,"INCLINATION":82.5105,"RA_OF_ASC_NODE":246.7029,"ARG_OF_PERICENTER":168.4222,"MEAN_ANOMALY":191.7111,"EPHEMERIS_TYPE":0,"CLASSIFICATION_TYPE":"U","NORAD_CAT_ID":18958,"ELEMENT_SET_NO":999,"REV_AT_EPOCH":5087,"BSTAR":0.00026023532,"MEAN_MOTION_DOT":5.325e-5,"MEAN_MOTION_DDOT":0},{"OBJECT_NAME":"SL-3 R/B","OBJECT_ID":"1988-032B","EPOCH":"2026-03-13T22:42:09.868320","MEAN_MOTION":15.19963859,"ECCENTRICITY":0.00247515,"INCLINATION":97.5194,"RA_OF_ASC_NODE":56.1818,"ARG_OF_PERICENTER":215.8184,"MEAN_ANOMALY":144.1392,"EPHEMERIS_TYPE":0,"CLASSIFICATION_TYPE":"U","NORAD_CAT_ID":19046,"ELEMENT_SET_NO":999,"REV_AT_EPOCH":5275,"BSTAR":0.00027390039,"MEAN_MOTION_DOT":5.87e-5,"MEAN_MOTION_DDOT":0},{"OBJECT_NAME":"SL-16 R/B","OBJECT_ID":"1988-039B","EPOCH":"2026-03-13T08:42:01.300320","MEAN_MOTION":14.19616171,"ECCENTRICITY":0.00229677,"INCLINATION":71.0138,"RA_OF_ASC_NODE":60.7806,"ARG_OF_PERICENTER":328.9599,"MEAN_ANOMALY":31.0168,"EPHEMERIS_TYPE":0,"CLASSIFICATION_TYPE":"U","NORAD_CAT_ID":19120,"ELEMENT_SET_NO":999,"REV_AT_EPOCH":95890,"BSTAR":9.9421904e-5,"MEAN_MOTION_DOT":1.62e-6,"MEAN_MOTION_DDOT":0},{"OBJECT_NAME":"COSMOS 1953","OBJECT_ID":"1988-050A","EPOCH":"2026-03-13T22:42:30.187008","MEAN_MOTION":15.28604061,"ECCENTRICITY":0.00125815,"INCLINATION":82.5104,"RA_OF_ASC_NODE":153.967,"ARG_OF_PERICENTER":109.2753,"MEAN_ANOMALY":250.9848,"EPHEMERIS_TYPE":0,"CLASSIFICATION_TYPE":"U","NORAD_CAT_ID":19210,"ELEMENT_SET_NO":999,"REV_AT_EPOCH":3843,"BSTAR":0.00030576874,"MEAN_MOTION_DOT":8.558e-5,"MEAN_MOTION_DDOT":0}]
