SL-14 R/B               
1 16496U 86006B   26072.96215774  .00000804  00000+0  82986-4 0  9992
2 16496  82.5236 255.7149 0075072 258.3339 100.9446 14.86821655149847
COSMOS 1743             
1 16719U 86034A   26072.94331496  .00038915  00000+0  50084-3 0  9996
2 16719  82.5292  69.3651 0001607 252.8944 107.2137 15.58879274180918
SL-14 R/B               
1 16792U 86046B   26072.98333485  .00000536  00000+0  58915-4 0  9994
2 16792  82.4782  76.1233 0022253 210.5368 149.4554 14.85594946127040
SL-14 R/B               
1 16882U 86055B   26072.59401692  .00000493  00000+0  53995-4 0  9992
2 16882  82.5194 123.0043 0017866 323.1063 201.7881 14.85646556119946
AJISAI (EGS)            
1 16908U 86061A   26072.97619218 -.00000094  00000+0  20384-4 0  9999
2 16908  50.0082  80.1659 0011283 298.0398 151.1603 12.44515651468531
SL-14 R/B               
1 17567U 87024B   26072.47652631  .00000554  00000+0  60351-4 0  9990
2 17567  82.5245  89.2034 0016778 246.2870 113.6587 14.86136139 88692
COSMOS 1833             
1 17589U 87027A   26072.96607723 -.00000200  00000+0 -81174-4 0  9999
2 17589  70.9213 317.0316 0024057 208.4818 151.4991 14.13053638 10920
SL-16 R/B               
1 17590U 87027B   26072.92735470  .00000041  00000+0  44274-4 0  9999
2 17590  70.9994 267.5645 0003200 133.3139 226.8252 14.17166621 15946
SL-14 R/B               
1 17912U 87038B   26072.87763879  .00000478  00000+0  52545-4 0  9991
2 17912  82.4994 292.8621 0020017 147.0690 213.1778 14.85373206 79852
COSMOS 1844             
1 17973U 87041A   26072.92599499 -.00000117  00000+0 -35405-4 0  9991
2 17973  70.9003  25.2396 0030247  11.6281 348.5533 14.14551431  4183
SL-14 R/B               
1 18153U 87055B   26072.24763471  .00000603  00000+0  66647-4 0  9995
2 18153  82.5031 345.6792 0020847   6.2682 353.8791 14.85634056 70465
COSMOS 1867             
1 18187U 87060A   26072.91240943 -.00000019  00000+0  30411-4 0  9998
2 18187  65.0106 294.8799 0014537 278.8372  81.1067 14.31503723 20543
SL-14 R/B               
1 18749U 88001B   26072.31055613  .00000656  00000+0  73050-4 0  9992
2 18749  82.5157 191.9553 0017047 222.9540 137.0346 14.85532783 42562
COSMOS 1933             
1 18958U 88020A   26072.94294184  .00005325  00000+0  26024-3 0  9998
2 18958  82.5105 246.7029 0004261 168.4222 191.7111 15.18029252 50878
SL-3 R/B                
1 19046U 88032B   26072.94594755  .00005870  00000+0  27390-3 0  9999
2 19046  97.5194  56.1818 0024751 215.8184 144.1392 15.19963859 52753
SL-16 R/B               
1 19120U 88039B   26072.36251505  .00000162  00000+0  99422-4 0  9993
2 19120  71.0138  60.7806 0022967 328.9599  31.0168 14.19616171958900
COSMOS 1953             
1 19210U 88050A   26072.94618272  .00008558  00000+0  30577-3 0  9990
2 19210  82.5104 153.9670 0012581 109.2753 250.9848 15.28604061 38437
